[{"OBJECT_NAME":"SATELIOT_3","OBJECT_ID":"2024-149CN","EPOCH":"2026-03-09T19:09:09.165600","MEAN_MOTION":14.97601684,"ECCENTRICITY":0.00058308,"INCLINATION":97.6866,"RA_OF_ASC_NODE":147.0596,"ARG_OF_PERICENTER":63.3535,"MEAN_ANOMALY":296.8284,"EPHEMERIS_TYPE":0,"CLASSIFICATION_TYPE":"U","NORAD_CAT_ID":60552,"ELEMENT_SET_NO":999,"REV_AT_EPOCH":8520,"BSTAR":0.00025002978,"MEAN_MOTION_DOT":2.865e-5,"MEAN_MOTION_DDOT":0},{"OBJECT_NAME":"STARLINK-35837","OBJECT_ID":"2025-280V","EPOCH":"2026-03-09T21:21:22.331520","MEAN_MOTION":14.983313,"ECCENTRICITY":0.00029338,"INCLINATION":70.0022,"RA_OF_ASC_NODE":334.0388,"ARG_OF_PERICENTER":271.456,"MEAN_ANOMALY":88.6263,"EPHEMERIS_TYPE":0,"CLASSIFICATION_TYPE":"U","NORAD_CAT_ID":66840,"ELEMENT_SET_NO":999,"REV_AT_EPOCH":1610,"BSTAR":0.00041961122,"MEAN_MOTION_DOT":4.917e-5,"MEAN_MOTION_DDOT":0}]
